[
    {
        "Altitude(m)": 605470.7380047594,
        "Argument of Periapsis(deg)": 0.0,
        "Eccentricity": 0.0,
        "Inclination(deg)": 60.0,
        "Latitude(deg)": 27.988037328044253,
        "Longitude(deg)": -112.73703169059878,
        "Mean Anomaly(deg)": 147.2727,
        "RAAN(deg)": 184.99999999999997,
        "Satellite Name": "Test1 823",
        "Satellite Number": 823,
        "Semi-Major Axis(m)": 6980739.136638005,
        "Time(s)": 0
    },
    {
        "Altitude(m)": 605395.7764531908,
        "Argument of Periapsis(deg)": 0.00010418945913296404,
        "Eccentricity": 0.0,
        "Inclination(deg)": 60.0,
        "Latitude(deg)": 27.473727763492885,
        "Longitude(deg)": -112.38384490705457,
        "Mean Anomaly(deg)": 147.8928061454618,
        "RAAN(deg)": 184.99957995086024,
        "Satellite Name": "Test1 823",
        "Satellite Number": 823,
        "Semi-Major Axis(m)": 6980739.136638005,
        "Time(s)": 10
    }
]